{"type": "FeatureCollection", "features": [ {"type": "Feature", "properties": {"norad_id": 66525, "name": "STARLINK-35975", "group": "last-30-days", "lat": -14.958099812142855, "lon": 39.76069485059609, "alt_km": 415.73860337417136, "timestamp": "2025-12-12T07:43:19.257553+00:00", "meta": {"OBJECT_NAME": "STARLINK-35975", "OBJECT_ID": "2025-265K", "EPOCH": "2025-12-11T20:00:01.999872", "MEAN_MOTION": 15.5049436, "ECCENTRICITY": 0.00017754, "INCLINATION": 43.0003, "RA_OF_ASC_NODE": 59.2784, "ARG_OF_PERICENTER": 297.1762, "MEAN_ANOMALY": 191.2475, "EPHEMERIS_TYPE": 0, "CLASSIFICATION_TYPE": "U", "NORAD_CAT_ID": 66525, "ELEMENT_SET_NO": 999, "REV_AT_EPOCH": 484, "BSTAR": 0.00044926853, "MEAN_MOTION_DOT": 0.00026023, "MEAN_MOTION_DDOT": 0}, "tle": {"line1": "1 66525U 25265K   25345.83335648  .00026023  00000+0  44927-3 0  9994", "line2": "2 66525  43.0003  59.2784 0001775 297.1762 191.2475 15.50494360  4847"}}, "geometry": {"type": "Point", "coordinates": [39.76069485059609, -14.958099812142855]}}, {"type": "Feature", "properties": {"norad_id": 66526, "name": "STARLINK-35932", "group": "last-30-days", "lat": -13.584709938730985, "lon": 41.387439107713014, "alt_km": 416.1464648887113, "timestamp": "2025-12-12T07:43:19.257563+00:00", "meta": {"OBJECT_NAME": "STARLINK-35932", "OBJECT_ID": "2025-265L", "EPOCH": "2025-12-11T20:00:01.999872", "MEAN_MOTION": 15.50566732, "ECCENTRICITY": 0.00015699, "INCLINATION": 43.0003, "RA_OF_ASC_NODE": 59.274, "ARG_OF_PERICENTER": 269.0594, "MEAN_ANOMALY": 221.3897, "EPHEMERIS_TYPE": 0, "CLASSIFICATION_TYPE": "U", "NORAD_CAT_ID": 66526, "ELEMENT_SET_NO": 999, "REV_AT_EPOCH": 474, "BSTAR": -0.000788252, "MEAN_MOTION_DOT": -0.00046292, "MEAN_MOTION_DDOT": 0}, "tle": {"line1": "1 66526U 25265L   25345.83335648 -.00046292  00000+0 -78825-3 0  9991", "line2": "2 66526  43.0003  59.2740 0001569 269.0594 221.3897 15.50566732  4747"}}, "geometry": {"type": "Point", "coordinates": [41.387439107713014, -13.584709938730985]}}, {"type": "Feature", "properties": {"norad_id": 66527, "name": "STARLINK-35935", "group": "last-30-days", "lat": -12.318744339361738, "lon": 42.85882246149005, "alt_km": 416.1734889473919, "timestamp": "2025-12-12T07:43:19.257573+00:00", "meta": {"OBJECT_NAME": "STARLINK-35935", "OBJECT_ID": "2025-265M", "EPOCH": "2025-12-11T20:00:01.999872", "MEAN_MOTION": 15.50565844, "ECCENTRICITY": 0.00013544, "INCLINATION": 43.0003, "RA_OF_ASC_NODE": 59.2692, "ARG_OF_PERICENTER": 264.163, "MEAN_ANOMALY": 228.2047, "EPHEMERIS_TYPE": 0, "CLASSIFICATION_TYPE": "U", "NORAD_CAT_ID": 66527, "ELEMENT_SET_NO": 999, "REV_AT_EPOCH": 484, "BSTAR": -0.00075404449, "MEAN_MOTION_DOT": -0.00044307, "MEAN_MOTION_DDOT": 0}, "tle": {"line1": "1 66527U 25265M   25345.83335648 -.00044307  00000+0 -75404-3 0  9997", "line2": "2 66527  43.0003  59.2692 0001354 264.1630 228.2047 15.50565844  4840"}}, "geometry": {"type": "Point", "coordinates": [42.85882246149005, -12.318744339361738]}}, {"type": "Feature", "properties": {"norad_id": 66528, "name": "STARLINK-35928", "group": "last-30-days", "lat": -11.045170963662404, "lon": 44.31674618731278, "alt_km": 415.9364283135101, "timestamp": "2025-12-12T07:43:19.257584+00:00", "meta": {"OBJECT_NAME": "STARLINK-35928", "OBJECT_ID": "2025-265N", "EPOCH": "2025-12-11T20:00:01.999872", "MEAN_MOTION": 15.50592979, "ECCENTRICITY": 0.00017853, "INCLINATION": 43.0004, "RA_OF_ASC_NODE": 59.2654, "ARG_OF_PERICENTER": 270.5056, "MEAN_ANOMALY": 223.7704, "EPHEMERIS_TYPE": 0, "CLASSIFICATION_TYPE": "U", "NORAD_CAT_ID": 66528, "ELEMENT_SET_NO": 999, "REV_AT_EPOCH": 484, "BSTAR": -0.0016244404, "MEAN_MOTION_DOT": -0.00094548, "MEAN_MOTION_DDOT": 0}, "tle": {"line1": "1 66528U 25265N   25345.83335648 -.00094548  00000+0 -16244-2 0  9996", "line2": "2 66528  43.0004  59.2654 0001785 270.5056 223.7704 15.50592979  4840"}}, "geometry": {"type": "Point", "coordinates": [44.31674618731278, -11.045170963662404]}}, {"type": "Feature", "properties": {"norad_id": 66529, "name": "STARLINK-35933", "group": "last-30-days", "lat": -20.416777711722027, "lon": 32.899389383454185, "alt_km": 434.73111654898094, "timestamp": "2025-12-12T07:43:19.257594+00:00", "meta": {"OBJECT_NAME": "STARLINK-35933", "OBJECT_ID": "2025-265P", "EPOCH": "2025-12-11T20:00:01.999872", "MEAN_MOTION": 15.4637911, "ECCENTRICITY": 0.00015071, "INCLINATION": 43.0003, "RA_OF_ASC_NODE": 59.2776, "ARG_OF_PERICENTER": 287.3857, "MEAN_ANOMALY": 201.7057, "EPHEMERIS_TYPE": 0, "CLASSIFICATION_TYPE": "U", "NORAD_CAT_ID": 66529, "ELEMENT_SET_NO": 999, "REV_AT_EPOCH": 484, "BSTAR": -0.045401792, "MEAN_MOTION_DOT": -0.02045203, "MEAN_MOTION_DDOT": 0}, "tle": {"line1": "1 66529U 25265P   25345.83335648 -.02045203  00000+0 -45402-1 0  9990", "line2": "2 66529  43.0003  59.2776 0001507 287.3857 201.7057 15.46379110  4844"}}, "geometry": {"type": "Point", "coordinates": [32.899389383454185, -20.416777711722027]}}, {"type": "Feature", "properties": {"norad_id": 66530, "name": "STARLINK-35961", "group": "last-30-days", "lat": -11.734699703767362, "lon": 43.52903287186642, "alt_km": 425.9394783058042, "timestamp": "2025-12-12T07:43:19.257617+00:00", "meta": {"OBJECT_NAME": "STARLINK-35961", "OBJECT_ID": "2025-265Q", "EPOCH": "2025-12-11T20:00:01.999872", "MEAN_MOTION": 15.49293402, "ECCENTRICITY": 0.00013909, "INCLINATION": 43.0004, "RA_OF_ASC_NODE": 59.256, "ARG_OF_PERICENTER": 277.0824, "MEAN_ANOMALY": 220.3278, "EPHEMERIS_TYPE": 0, "CLASSIFICATION_TYPE": "U", "NORAD_CAT_ID": 66530, "ELEMENT_SET_NO": 999, "REV_AT_EPOCH": 484, "BSTAR": -0.041784301, "MEAN_MOTION_DOT": -0.02081218, "MEAN_MOTION_DDOT": 0}, "tle": {"line1": "1 66530U 25265Q   25345.83335648 -.02081218  00000+0 -41784-1 0  9997", "line2": "2 66530  43.0004  59.2560 0001390 277.0824 220.3278 15.49293402  4842"}}, "geometry": {"type": "Point", "coordinates": [43.52903287186642, -11.734699703767362]}}, {"type": "Feature", "properties": {"norad_id": 66531, "name": "STARLINK-35960", "group": "last-30-days", "lat": -7.246412256017935, "lon": 48.549795772989526, "alt_km": 416.3013201811218, "timestamp": "2025-12-12T07:43:19.257643+00:00", "meta": {"OBJECT_NAME": "STARLINK-35960", "OBJECT_ID": "2025-265R", "EPOCH": "2025-12-11T20:00:01.999872", "MEAN_MOTION": 15.50705983, "ECCENTRICITY": 8.441e-05, "INCLINATION": 43, "RA_OF_ASC_NODE": 59.2495, "ARG_OF_PERICENTER": 270.4983, "MEAN_ANOMALY": 229.5074, "EPHEMERIS_TYPE": 0, "CLASSIFICATION_TYPE": "U", "NORAD_CAT_ID": 66531, "ELEMENT_SET_NO": 999, "REV_AT_EPOCH": 484, "BSTAR": -0.0067758932, "MEAN_MOTION_DOT": -0.00380813, "MEAN_MOTION_DDOT": 0}, "tle": {"line1": "1 66531U 25265R   25345.83335648 -.00380813  00000+0 -67759-2 0  9990", "line2": "2 66531  43.0000  59.2495 0000844 270.4983 229.5074 15.50705983  4841"}}, "geometry": {"type": "Point", "coordinates": [48.549795772989526, -7.246412256017935]}}, {"type": "Feature", "properties": {"norad_id": 66532, "name": "STARLINK-35914", "group": "last-30-days", "lat": -5.887382728050633, "lon": 50.03398373108302, "alt_km": 415.7613079954317, "timestamp": "2025-12-12T07:43:19.257655+00:00", "meta": {"OBJECT_NAME": "STARLINK-35914", "OBJECT_ID": "2025-265S", "EPOCH": "2025-12-11T20:00:01.999872", "MEAN_MOTION": 15.50570217, "ECCENTRICITY": 0.00015076, "INCLINATION": 43.0002, "RA_OF_ASC_NODE": 59.2445, "ARG_OF_PERICENTER": 255.8848, "MEAN_ANOMALY": 246.0664, "EPHEMERIS_TYPE": 0, "CLASSIFICATION_TYPE": "U", "NORAD_CAT_ID": 66532, "ELEMENT_SET_NO": 999, "REV_AT_EPOCH": 484, "BSTAR": -0.00090581326, "MEAN_MOTION_DOT": -0.00053106, "MEAN_MOTION_DDOT": 0}, "tle": {"line1": "1 66532U 25265S   25345.83335648 -.00053106  00000+0 -90581-3 0  9993", "line2": "2 66532  43.0002  59.2445 0001507 255.8848 246.0664 15.50570217  4842"}}, "geometry": {"type": "Point", "coordinates": [50.03398373108302, -5.887382728050633]}}, {"type": "Feature", "properties": {"norad_id": 66533, "name": "STARLINK-35707", "group": "last-30-days", "lat": -4.584791427159162, "lon": 51.44625996187066, "alt_km": 415.30225002388215, "timestamp": "2025-12-12T07:43:19.257665+00:00", "meta": {"OBJECT_NAME": "STARLINK-35707", "OBJECT_ID": "2025-265T", "EPOCH": "2025-12-11T20:00:01.999872", "MEAN_MOTION": 15.50596885, "ECCENTRICITY": 0.00018117, "INCLINATION": 43.0003, "RA_OF_ASC_NODE": 59.2402, "ARG_OF_PERICENTER": 275.8383, "MEAN_ANOMALY": 228.0295, "EPHEMERIS_TYPE": 0, "CLASSIFICATION_TYPE": "U", "NORAD_CAT_ID": 66533, "ELEMENT_SET_NO": 999, "REV_AT_EPOCH": 484, "BSTAR": -0.0018224993, "MEAN_MOTION_DOT": -0.00105897, "MEAN_MOTION_DDOT": 0}, "tle": {"line1": "1 66533U 25265T   25345.83335648 -.00105897  00000+0 -18225-2 0  9993", "line2": "2 66533  43.0003  59.2402 0001811 275.8383 228.0295 15.50596885  4840"}}, "geometry": {"type": "Point", "coordinates": [51.44625996187066, -4.584791427159162]}}, {"type": "Feature", "properties": {"norad_id": 66534, "name": "STARLINK-35976", "group": "last-30-days", "lat": -3.28178143489095, "lon": 52.85072230473811, "alt_km": 415.29909483574374, "timestamp": "2025-12-12T07:43:19.257676+00:00", "meta": {"OBJECT_NAME": "STARLINK-35976", "OBJECT_ID": "2025-265U", "EPOCH": "2025-12-11T20:00:01.999872", "MEAN_MOTION": 15.50569739, "ECCENTRICITY": 0.00015134, "INCLINATION": 43.0004, "RA_OF_ASC_NODE": 59.2358, "ARG_OF_PERICENTER": 267.8868, "MEAN_ANOMALY": 237.9021, "EPHEMERIS_TYPE": 0, "CLASSIFICATION_TYPE": "U", "NORAD_CAT_ID": 66534, "ELEMENT_SET_NO": 999, "REV_AT_EPOCH": 484, "BSTAR": -0.00090419917, "MEAN_MOTION_DOT": -0.00053011, "MEAN_MOTION_DDOT": 0}, "tle": {"line1": "1 66534U 25265U   25345.83335648 -.00053011  00000+0 -90420-3 0  9992", "line2": "2 66534  43.0004  59.2358 0001513 267.8868 237.9021 15.50569739  4844"}}, "geometry": {"type": "Point", "coordinates": [52.85072230473811, -3.28178143489095]}}]}